DMSP 5D-3 F16 (USA 172) 
1 28054U 03048A   26168.95350791 -.00000029  00000+0  85052-5 0  9992
2 28054  98.9890 192.7869 0007786 138.2457 337.8580 14.14483190169593
METEOSAT-9 (MSG-2)      
1 28912U 05049B   26168.83963522  .00000114  00000+0  00000+0 0  9995
2 28912   9.3634  54.1628 0001660 344.5140 215.3198  1.00272435  7009
DMSP 5D-3 F17 (USA 191) 
1 29522U 06050A   26168.94752060 -.00000021  00000+0  11264-4 0  9998
2 29522  98.7378 175.5021 0011147  57.3902 302.8346 14.14993062 12531
FENGYUN 3A              
1 32958U 08026A   26168.82264941  .00000055  00000+0  46601-4 0  9992
2 32958  98.6883 109.6439 0009615 121.9890 238.2222 14.19571285935498
GOES 14                 
1 35491U 09033A   26168.92478844 -.00000300  00000+0  00000+0 0  9998
2 35491   1.6928  83.0316 0001784  11.6820 285.7843  1.00110618  6594
DMSP 5D-3 F18 (USA 210) 
1 35951U 09057A   26168.91895048  .00000218  00000+0  13611-3 0  9996
2 35951  98.9037 149.6864 0009909 247.2146 112.7981 14.14897147859694
EWS-G2 (GOES 15)        
1 36411U 10008A   26168.90944837  .00000014  00000+0  00000+0 0  9994
2 36411   1.2804  82.8321 0004810  42.3888 172.0396  1.00265913 59641
COMS 1                  
1 36744U 10032A   26168.83950402  .00000066  00000+0  00000+0 0  9994
2 36744   4.8074  75.3468 0011531  11.8661 191.9386  0.99162618 51090
FENGYUN 3B              
1 37214U 10059A   26168.94794372 -.00000276  00000+0 -11956-3 0  9991
2 37214  98.9614 214.9658 0021944 181.7660 278.5450 14.14840150807532
SUOMI NPP               
1 37849U 11061A   26168.97491799  .00000052  00000+0  45835-4 0  9993
2 37849  98.7953 109.8456 0001489   4.8423 355.2767 14.19517523758553
METEOSAT-10 (MSG-3)     
1 38552U 12035B   26167.91989406 -.00000009  00000+0  00000+0 0  9990
2 38552   4.6715  61.0232 0001486 328.8582 206.8187  1.00276823 50856
METOP-B                 
1 38771U 12049A   26168.89353809  .00000080  00000+0  56227-4 0  9993
2 38771  98.6504 220.3787 0002195  17.9345 342.1910 14.21432898713367
INSAT-3D                
1 39216U 13038B   26168.92244843 -.00000346  00000+0  00000+0 0  9997
2 39216   1.9288  82.5294 0000580 314.9768 330.2447  1.00268839 47081
FENGYUN 3C              
1 39260U 13052A   26168.96257008  .00000063  00000+0  53322-4 0  9998
2 39260  98.4987 142.8018 0015217  25.4787 334.7135 14.15755172658676
METEOR-M 2              
1 40069U 14037A   26168.91989370  .00000024  00000+0  30058-4 0  9998
2 40069  98.5113 144.6325 0006721  42.5327 317.6370 14.21461300619423
HIMAWARI-8              
1 40267U 14060A   26168.92470177 -.00000281  00000+0  00000+0 0  9990
2 40267   0.0097  32.4890 0001032  58.1333 289.1082  1.00271384 42767
FENGYUN 2G              
1 40367U 14090A   26168.77395412 -.00000310  00000+0  00000+0 0  9998
2 40367   5.6410  72.8081 0004012 158.0009  53.5218  1.00271765 42003
METEOSAT-11 (MSG-4)     
1 40732U 15034A   26168.25712117  .00000060  00000+0  00000+0 0  9992
2 40732   3.2014  71.1096 0001741  11.8883 284.7520  1.00280400  7217
ELEKTRO-L 2             
1 41105U 15074A   26167.63786162 -.00000124  00000+0  00000+0 0  9995
2 41105   6.6931  70.5258 0000972 242.2635 167.2330  1.00270425 38506
SENTINEL-3A             
1 41335U 16011A   26168.91785101  .00000092  00000+0  56225-4 0  9994
2 41335  98.6249 236.2911 0001409 101.7809 258.3530 14.26740193538166
INSAT-3DR               
1 41752U 16054A   26168.91144170 -.00000082  00000+0  00000+0 0  9994
2 41752   0.1085  86.2690 0010561 187.5960  34.3813  1.00270972 35823
HIMAWARI-9              
1 41836U 16064A   26168.92470177 -.00000281  00000+0  00000+0 0  9999
2 41836   0.0153 283.2440 0000941 207.4747 249.1057  1.00270524 35211
GOES 16                 
1 41866U 16071A   26168.87607751 -.00000096  00000+0  00000+0 0  9998
2 41866   0.3438  85.5156 0000237 312.9847  78.3164  1.00271058 35114
FENGYUN 4A              
1 41882U 16077A   26168.99263307 -.00000364  00000+0  00000+0 0  9998
2 41882   2.3256  80.2790 0008586 153.3107 153.7451  1.00268223 34935
CYGFM05                 
1 41884U 16078A   26168.62835141  .00019269  00000+0  26108-3 0  9996
2 41884  34.9565 257.6688 0007010 155.8630 204.2424 15.56688646528825
CYGFM04                 
1 41885U 16078B   26168.53365447  .00023569  00000+0  26530-3 0  9991
2 41885  34.9311 225.9685 0006748 198.5401 161.5079 15.61530426529052
CYGFM02                 
1 41886U 16078C   26168.53367601  .00027107  00000+0  27097-3 0  9997
2 41886  34.9390 220.4939 0007770 199.5292 160.5137 15.64521931529224
CYGFM01                 
1 41887U 16078D   26168.61687454  .00019933  00000+0  26326-3 0  9990
2 41887  34.9394 258.7983 0006779 149.0020 211.1105 15.57366631528772
CYGFM08                 
1 41888U 16078E   26168.57561980  .00022448  00000+0  26759-3 0  9996
2 41888  34.9420 238.6407 0008409 181.0555 179.0154 15.60037208529037
CYGFM07                 
1 41890U 16078G   26168.53473553  .00021393  00000+0  25426-3 0  9991
2 41890  34.9433 227.2545 0007144 197.5321 162.5158 15.60133044529057
CYGFM03                 
1 41891U 16078H   26168.56973259  .00022653  00000+0  26922-3 0  9995
2 41891  34.9388 228.9588 0006561 185.7876 174.2774 15.60130523529039
